OBJECT_NAME,OBJECT_ID,EPOCH,MEAN_MOTION,ECCENTRICITY,INCLINATION,RA_OF_ASC_NODE,ARG_OF_PERICENTER,MEAN_ANOMALY,EPHEMERIS_TYPE,CLASSIFICATION_TYPE,NORAD_CAT_ID,ELEMENT_SET_NO,REV_AT_EPOCH,BSTAR,MEAN_MOTION_DOT,MEAN_MOTION_DDOT
2024-166B,2024-166B,2024-10-06T05:34:46.497504,15.80313733,0.0014698,96.7646,175.2906,165.4233,194.7463,0,U,61180,999,297,0.000405,0.0007691,0
QAEM 100 DEB,2024-165C,2024-10-06T02:08:23.506944,15.13397992,0.0007989,64.1221,268.3402,294.7213,65.3072,0,U,61181,999,300,0.01522,0.00284039,0
GSAT0232 (GALILEO 32),2024-167A,2024-10-05T01:32:57.298848,1.7317709,0.0017154,55.4085,238.3335,273.0908,86.6759,0,U,61182,999,29,0,9e-08,0
GSAT0226 (GALILEO 31),2024-167B,2024-10-04T12:53:21.055200,1.71379623,0.0032528,55.409,238.3638,98.1835,216.1601,0,U,61183,999,28,0,6e-08,0
FALCON R/B,2024-167C,2024-10-05T02:30:15.156576,1.726154,0.0009961,55.4106,238.3386,5.3768,354.5968,0,U,61184,999,27,0,9e-08,0
2024-168A,2024-168A,2024-10-05T07:25:50.620224,1.80096614,0.007915,54.9288,323.6754,294.4029,64.8409,0,U,61185,999,30,0,-6.6e-07,0
2024-168B,2024-168B,2024-10-05T19:19:01.905024,1.8296917,0.0117643,54.9766,323.655,177.3788,315.4676,0,U,61186,999,30,0,-6.3e-07,0
2024-168C,2024-168C,2024-10-05T17:21:52.012224,1.84329694,0.0066473,54.9873,323.6511,179.9659,305.6787,0,U,61187,999,31,0,-6.3e-07,0
2024-168D,2024-168D,2024-10-06T02:42:36.986976,4.4555213,0.5800162,55.0045,314.5274,175.6314,193.4626,0,U,61188,999,74,0.0016542,0.00137231,-9.3917e-08
2024-169A,2024-169A,2024-10-06T04:54:36.288288,15.0847355,0.0009387,97.5966,5.4391,221.6423,138.4091,0,U,61189,999,241,0.0012571,0.00019585,0
2024-169B,2024-169B,2024-10-06T04:48:28.982880,15.08936075,0.0009247,97.5867,5.4241,215.2022,144.8597,0,U,61190,999,241,0.0013221,0.00020866,0
2024-169C,2024-169C,2024-10-06T04:40:12.439488,15.09638426,0.0010022,97.5943,5.4463,211.9846,148.0775,0,U,61191,999,241,0.0013169,0.00021192,0
2024-169D,2024-169D,2024-10-06T04:34:38.097408,15.10255322,0.0012633,97.5872,5.4368,218.2956,141.7377,0,U,61192,999,241,0.0013598,0.00022277,0
2024-169E,2024-169E,2024-10-06T04:29:36.286656,15.1069944,0.0013919,97.5974,5.4617,225.3511,134.6585,0,U,61193,999,241,0.0013057,0.00021658,0
2024-169F,2024-169F,2024-10-06T04:18:03.707712,15.11586867,0.0017023,97.5951,5.4676,233.7035,126.2624,0,U,61194,999,241,0.0013068,0.00022243,0
2024-170A,2024-170A,2024-10-06T03:25:39.448416,14.13385951,0.0006576,44.8585,27.8058,356.2232,3.8554,0,U,61195,999,221,0.0010487,1.853e-05,0
2024-170B,2024-170B,2024-10-06T03:25:46.397568,14.1324791,0.0006739,44.8598,27.8092,348.6847,11.3837,0,U,61196,999,221,0.0010576,1.865e-05,0
2024-170C,2024-170C,2024-10-06T03:29:04.518816,14.13203575,0.0006696,44.8635,27.83,343.8861,16.1761,0,U,61197,999,221,0.0010202,1.792e-05,0
2024-170D,2024-170D,2024-10-06T03:31:01.711776,14.13068307,0.0006899,44.8621,27.8355,343.0065,17.0539,0,U,61198,999,223,0.001033,1.812e-05,0
KZ-1A R/B,2024-170E,2024-10-06T05:05:27.355488,14.86389305,0.0495864,44.7458,18.0702,198.9944,159.1827,0,U,61199,999,235,0.0019407,0.00213866,1.4954e-05
STARLINK-11209 [DTC],2024-171A,2024-10-05T22:00:00.999936,15.76725164,8.65e-05,53.159,220.1656,91.1771,162.9614,0,U,61200,999,366,0.00021877,0.00035293,0
STARLINK-11257 [DTC],2024-171B,2024-10-06T04:00:01.999584,15.76736177,0.0001135,53.1585,218.8654,77.0953,184.7368,0,U,61201,999,368,-0.00013817,-0.00023213,0
STARLINK-11309 [DTC],2024-171C,2024-10-05T22:00:00.999936,15.76781522,0.0001248,53.1601,220.0522,104.5371,205.0658,0,U,61202,999,366,-0.00050486,-0.00082676,0
STARLINK-11292 [DTC],2024-171D,2024-10-06T04:00:01.999584,15.7673862,5.21e-05,53.1597,218.7517,57.556,259.7377,0,U,61203,999,368,-0.00012126,-0.00020459,0
STARLINK-11302 [DTC],2024-171E,2024-10-05T22:00:00.999936,15.76783901,0.0001193,53.161,219.9371,99.8063,265.4779,0,U,61204,999,366,-0.0016829,-0.00268242,0
STARLINK-11277 [DTC],2024-171F,2024-10-06T04:00:01.999584,15.77424064,7.29e-05,53.1618,218.5814,103.92,296.1295,0,U,61205,999,368,-0.0056277,-0.00859914,0
STARLINK-11279 [DTC],2024-171G,2024-10-05T22:00:00.999936,15.7898396,9.32e-05,53.1628,219.777,126.232,317.4358,0,U,61206,999,366,-0.0056268,-0.00916555,0
STARLINK-11091 [DTC],2024-171H,2024-10-06T04:00:01.999584,15.76692761,5.77e-05,53.1603,218.6374,96.4122,276.3799,0,U,61207,999,363,8.1124e-05,0.00012622,0
STARLINK-11291 [DTC],2024-171J,2024-10-06T04:00:01.999584,15.79508554,7.58e-05,53.1621,218.4814,110.5906,338.2341,0,U,61208,999,368,-0.0053558,-0.00895804,0
STARLINK-11304 [DTC],2024-171K,2024-10-05T22:00:00.999936,15.81045143,9.27e-05,53.1624,219.6882,126.0489,0.6233,0,U,61209,999,366,-0.0051035,-0.0091452,0
